#aV2024  3 15  0  0  0.00000000     288 DD+AD WGS84 FIT  NGA
## 2305 432000.00000000   300.00000000 60384 0.0000000000000
+   32     1  2  3  4  5  6  7  8  9 10 11 12 13 14 15 16 17
+         18 19 20 21 22 23 24 25 26 27 28 29 30 31 32  0  0
+          0  0  0  0  0  0  0  0  0  0  0  0  0  0  0  0  0
+          0  0  0  0  0  0  0  0  0  0  0  0  0  0  0  0  0
+          0  0  0  0  0  0  0  0  0  0  0  0  0  0  0  0  0
++         2  2  2  2  2  2  2  2  2  2  2  2  2  2  2  2  2
++         2  2  2  2  2  2  2  2  2  2  2  2  2  2  2  0  0
++         0  0  0  0  0  0  0  0  0  0  0  0  0  0  0  0  0
++         0  0  0  0  0  0  0  0  0  0  0  0  0  0  0  0  0
++         0  0  0  0  0  0  0  0  0  0  0  0  0  0  0  0  0
%c cc cc ccc ccc cccc cccc cccc cccc ccccc ccccc ccccc ccccc
%c cc cc ccc ccc cccc cccc cccc cccc ccccc ccccc ccccc ccccc
%f  0.0000000  0.000000000  0.00000000000  0.000000000000000
%f  0.0000000  0.000000000  0.00000000000  0.000000000000000
%i    0    0    0    0      0      0      0      0         0
%i    0    0    0    0      0      0      0      0         0
/*      NGA, ST. LOUIS,MO.                                  
/*   EPHEMERIS COMPUTED FROM 2 DAYS OF DATA                 
/*   EPOCHA v9 SMOOTHER                                     
/*   G2296 IERS2010 SATIGS SATAPC                           
*  2024  3 15 21  0  0.00000000
P  1  18190.587755   4850.018560  18534.532438    174.154550                    
V  1  13016.173205  20253.649434 -17424.730163      0.020197                    
P  2  21058.441934  11620.177081  12047.148567   -469.732798                    
V  2   8054.134002  12118.182784 -26605.598347      0.061972                    
P  3  15432.487437    467.700046  21449.501786    254.091166                    
V  3 -10699.124297  25376.276108   7214.035520      0.227493                    
P  4  25820.067038   2363.555860   6095.890274    315.706132                    
V  4  -7487.462637   3038.515251  30487.119142      0.090927                    
P  5  -9473.097679 -14309.299829 -20418.717909   -165.514416                    
V  5  10083.315787 -23484.908022  11969.965616     -0.014143                    
P  6  -1764.797563 -20916.795484  16269.502039    366.399739                    
V  6  12973.562654  15954.151100  22115.402834     -0.164258                    
P  7  14101.338181  -6293.037931 -21148.815388    -85.053858                    
V  7  16357.622135  22761.949740   3575.377966     -0.087300                    
P  8  21688.735292   7026.810726 -14075.467612     57.300762                    
V  8 -17101.608037   4418.362844 -23899.428808      0.271387                    
P  9  24410.768253  -8083.929103  -6845.551089    125.772644                    
V  9   8859.517746   1559.069780  30045.439201      0.131711                    
P 10 -10422.461962  24237.053360    395.402498     -0.560063                    
V 10  -2288.961604   -733.818737 -32445.412857     -0.019247                    
P 11 -11004.846201 -23574.295909   5496.081988   -607.675711                    
V 11   5918.303206   4403.546630  30826.340209     -0.116807                    
P 12 -15389.664733  -2464.969804  21211.894350   -487.481615                    
V 12  12359.157091 -24700.781837   6075.543481     -0.035741                    
P 13 -13639.072599 -13311.887485 -18795.601577    634.418709                    
V 13  23363.037955   -350.326086 -16666.999931      0.033225                    
P 14  13399.360879 -22547.005510  -3429.416387    351.384914                    
V 14   1198.369213   5454.085005 -31148.798009      0.097544                    
P 15 -22108.530369  -5195.741923 -14425.107653    138.012856                    
V 15  16282.286706  -6808.559189 -23100.797604      0.040071                    
P 16   4276.794307  18808.220120 -18392.948919   -340.344908                    
V 16 -12478.727068  19202.874007  17493.568357      0.088604                    
P 17  15485.681857 -12918.993175  17785.221843    713.567297                    
V 17  21708.517345    300.516623 -18989.765288     -0.013753                    
P 18 -12991.079306   7400.412469 -21943.897483   -576.157739                    
V 18 -15979.466221 -22806.352545   1586.543440     -0.074883                    
P 19   5427.140850 -14612.112908  21266.155489    454.443853                    
V 19  27479.706361    677.976313  -6848.686477      0.053133                    
P 20  -2812.216538 -23688.438327 -11781.678760    383.811418                    
V 20   5992.767276 -13989.705985  26402.070664     -0.013911                    
P 21  20797.201681  15949.028222   7299.491879    131.222802                    
V 21   4248.580429   7454.867198 -29383.604723     -0.015104                    
P 22   9437.015288 -24529.209736   5222.665893     15.461154                    
V 22   5047.523525  -4111.425000 -30672.601983     -0.059088                    
P 23 -15725.491712  17838.133962 -11607.425461    177.901101                    
V 23   3675.209205 -14502.754758 -27394.369677      0.086412                    
P 24 -21000.690418 -13704.764690   8940.308283   -446.735955                    
V 24  -5556.739486 -10905.302127 -28047.146336     -0.053260                    
P 25 -17366.744296   9168.714859  17415.239587    491.384478                    
V 25   6999.334113 -21926.419051  18432.859068      0.010040                    
P 26  -2148.568272  24954.624328  -8410.509458    179.101889                    
V 26  -7023.460666   8800.578306  28777.687416     -0.045383                    
P 27  10620.701864  13320.262254 -20763.052155    -12.012597                    
V 27 -25373.594803   3560.470240 -10418.410577     -0.028100                    
P 28   -122.798439  19823.600051  17660.401709   -165.744586                    
V 28 -15129.593248 -16675.375381  18588.681868     -0.139438                    
P 29 -25739.054010   4372.771152  -5228.086322   -604.712445                    
V 29  -6613.261335  -2087.089910  31021.095820      0.010064                    
P 30   5859.133998 -16598.134904 -19680.044025   -419.271878                    
V 30  16206.877808  19683.568315 -11964.645923      0.052813                    
P 31   7652.602867  23143.694365   9836.002691   -227.983310                    
V 31  -9898.456801  -8868.068106  28362.786372     -0.000224                    
P 32 -11519.750270  14711.931371  19002.588511   -615.900635                    
V 32 -23773.909289   1341.124846 -15820.958703     -0.012474                    
EOF
